[
    {
        "Altitude(m)": 705913.2117151123,
        "Argument of Periapsis(deg)": 0.0034170363559881197,
        "Eccentricity": 0.0,
        "Inclination(deg)": 45.0,
        "Latitude(deg)": 38.76783219021641,
        "Longitude(deg)": 36.77553506232726,
        "Mean Anomaly(deg)": 118.00546499424426,
        "RAAN(deg)": 9.99677441756254,
        "Satellite Name": "Constellation 1 51",
        "Satellite Number": 51,
        "Semi-Major Axis(m)": 7083131.272910544,
        "Time(s)": 57
    },
    {
        "Altitude(m)": 705907.7960756577,
        "Argument of Periapsis(deg)": 0.003476984362233526,
        "Eccentricity": 0.0,
        "Inclination(deg)": 45.0,
        "Latitude(deg)": 38.74190449921931,
        "Longitude(deg)": 36.841728727254356,
        "Mean Anomaly(deg)": 118.06616613449415,
        "RAAN(deg)": 9.996717828396969,
        "Satellite Name": "Constellation 1 51",
        "Satellite Number": 51,
        "Semi-Major Axis(m)": 7083131.272910544,
        "Time(s)": 58
    },
    {
        "Altitude(m)": 705902.3741889778,
        "Argument of Periapsis(deg)": 0.003536932368478932,
        "Eccentricity": 0.0,
        "Inclination(deg)": 45.0,
        "Latitude(deg)": 38.71593445784481,
        "Longitude(deg)": 36.90787139477939,
        "Mean Anomaly(deg)": 118.12686727474407,
        "RAAN(deg)": 9.996661239231399,
        "Satellite Name": "Constellation 1 51",
        "Satellite Number": 51,
        "Semi-Major Axis(m)": 7083131.272910544,
        "Time(s)": 59
    },
    {
        "Altitude(m)": 705896.9460883613,
        "Argument of Periapsis(deg)": 0.003596880374724337,
        "Eccentricity": 0.0,
        "Inclination(deg)": 45.0,
        "Latitude(deg)": 38.68992213517646,
        "Longitude(deg)": 36.97396340240408,
        "Mean Anomaly(deg)": 118.18756841499393,
        "RAAN(deg)": 9.99660465006583,
        "Satellite Name": "Constellation 1 51",
        "Satellite Number": 51,
        "Semi-Major Axis(m)": 7083131.272910544,
        "Time(s)": 60
    },
    {
        "Altitude(m)": 705891.5118071379,
        "Argument of Periapsis(deg)": 0.0036568283809697427,
        "Eccentricity": 0.0,
        "Inclination(deg)": 45.0,
        "Latitude(deg)": 38.663867600275594,
        "Longitude(deg)": 37.040004583719686,
        "Mean Anomaly(deg)": 118.24826955524385,
        "RAAN(deg)": 9.996548060900261,
        "Satellite Name": "Constellation 1 51",
        "Satellite Number": 51,
        "Semi-Major Axis(m)": 7083131.272910544,
        "Time(s)": 61
    },
    {
        "Altitude(m)": 705886.0713786813,
        "Argument of Periapsis(deg)": 0.003716776387215149,
        "Eccentricity": 0.0,
        "Inclination(deg)": 45.0,
        "Latitude(deg)": 38.63777092218185,
        "Longitude(deg)": 37.10599494079524,
        "Mean Anomaly(deg)": 118.30897069549374,
        "RAAN(deg)": 9.996491471734691,
        "Satellite Name": "Constellation 1 51",
        "Satellite Number": 51,
        "Semi-Major Axis(m)": 7083131.272910544,
        "Time(s)": 62
    },
    {
        "Altitude(m)": 705880.6248364146,
        "Argument of Periapsis(deg)": 0.003776724393460554,
        "Eccentricity": 0.0,
        "Inclination(deg)": 45.0,
        "Latitude(deg)": 38.61163216991239,
        "Longitude(deg)": 37.171934476078405,
        "Mean Anomaly(deg)": 118.36967183574366,
        "RAAN(deg)": 9.99643488256912,
        "Satellite Name": "Constellation 1 51",
        "Satellite Number": 51,
        "Semi-Major Axis(m)": 7083131.272910544,
        "Time(s)": 63
    },
    {
        "Altitude(m)": 705875.172213806,
        "Argument of Periapsis(deg)": 0.003836672399705959,
        "Eccentricity": 0.0,
        "Inclination(deg)": 45.0,
        "Latitude(deg)": 38.585451412461516,
        "Longitude(deg)": 37.23782319239388,
        "Mean Anomaly(deg)": 118.43037297599355,
        "RAAN(deg)": 9.996378293403552,
        "Satellite Name": "Constellation 1 51",
        "Satellite Number": 51,
        "Semi-Major Axis(m)": 7083131.272910544,
        "Time(s)": 64
    },
    {
        "Altitude(m)": 705869.713544365,
        "Argument of Periapsis(deg)": 0.003896620405951365,
        "Eccentricity": 0.0,
        "Inclination(deg)": 45.0,
        "Latitude(deg)": 38.55922871880007,
        "Longitude(deg)": 37.30366109294259,
        "Mean Anomaly(deg)": 118.49107411624347,
        "RAAN(deg)": 9.996321704237983,
        "Satellite Name": "Constellation 1 51",
        "Satellite Number": 51,
        "Semi-Major Axis(m)": 7083131.272910544,
        "Time(s)": 65
    },
    {
        "Altitude(m)": 705864.2488616514,
        "Argument of Periapsis(deg)": 0.003956568412196771,
        "Eccentricity": 0.0,
        "Inclination(deg)": 45.0,
        "Latitude(deg)": 38.53296415787505,
        "Longitude(deg)": 37.369448181299326,
        "Mean Anomaly(deg)": 118.55177525649333,
        "RAAN(deg)": 9.996265115072413,
        "Satellite Name": "Constellation 1 51",
        "Satellite Number": 51,
        "Semi-Major Axis(m)": 7083131.272910544,
        "Time(s)": 66
    },
    {
        "Altitude(m)": 705858.7781992638,
        "Argument of Periapsis(deg)": 0.004016516418442176,
        "Eccentricity": 0.0,
        "Inclination(deg)": 45.0,
        "Latitude(deg)": 38.5066577986088,
        "Longitude(deg)": 37.43518429331496,
        "Mean Anomaly(deg)": 118.61247639674325,
        "RAAN(deg)": 9.996208525906844,
        "Satellite Name": "Constellation 1 51",
        "Satellite Number": 51,
        "Semi-Major Axis(m)": 7083131.272910544,
        "Time(s)": 67
    },
    {
        "Altitude(m)": 705853.3015908551,
        "Argument of Periapsis(deg)": 0.004076464424687581,
        "Eccentricity": 0.0,
        "Inclination(deg)": 45.0,
        "Latitude(deg)": 38.48030970989968,
        "Longitude(deg)": 37.500869769503176,
        "Mean Anomaly(deg)": 118.67317753699314,
        "RAAN(deg)": 9.996151936741274,
        "Satellite Name": "Constellation 1 51",
        "Satellite Number": 51,
        "Semi-Major Axis(m)": 7083131.272910544,
        "Time(s)": 68
    },
    {
        "Altitude(m)": 705847.819070117,
        "Argument of Periapsis(deg)": 0.004136412430932987,
        "Eccentricity": 0.0,
        "Inclination(deg)": 45.0,
        "Latitude(deg)": 38.45391996061984,
        "Longitude(deg)": 37.56650444645623,
        "Mean Anomaly(deg)": 118.73387867724306,
        "RAAN(deg)": 9.996095347575704,
        "Satellite Name": "Constellation 1 51",
        "Satellite Number": 51,
        "Semi-Major Axis(m)": 7083131.272910544,
        "Time(s)": 69
    },
    {
        "Altitude(m)": 705842.3306707828,
        "Argument of Periapsis(deg)": 0.004196360437178394,
        "Eccentricity": 0.0,
        "Inclination(deg)": 45.0,
        "Latitude(deg)": 38.42748861961609,
        "Longitude(deg)": 37.632088329231834,
        "Mean Anomaly(deg)": 118.79457981749295,
        "RAAN(deg)": 9.996038758410135,
        "Satellite Name": "Constellation 1 51",
        "Satellite Number": 51,
        "Semi-Major Axis(m)": 7083131.272910544,
        "Time(s)": 70
    },
    {
        "Altitude(m)": 705836.8364266296,
        "Argument of Periapsis(deg)": 0.004256308443423799,
        "Eccentricity": 0.0,
        "Inclination(deg)": 45.0,
        "Latitude(deg)": 38.401015755708784,
        "Longitude(deg)": 37.6976214232553,
        "Mean Anomaly(deg)": 118.85528095774286,
        "RAAN(deg)": 9.995982169244567,
        "Satellite Name": "Constellation 1 51",
        "Satellite Number": 51,
        "Semi-Major Axis(m)": 7083131.272910544,
        "Time(s)": 71
    },
    {
        "Altitude(m)": 705831.3363714948,
        "Argument of Periapsis(deg)": 0.004316256449669204,
        "Eccentricity": 0.0,
        "Inclination(deg)": 45.0,
        "Latitude(deg)": 38.37450143769176,
        "Longitude(deg)": 37.76310373431699,
        "Mean Anomaly(deg)": 118.91598209799272,
        "RAAN(deg)": 9.995925580078996,
        "Satellite Name": "Constellation 1 51",
        "Satellite Number": 51,
        "Semi-Major Axis(m)": 7083131.272910544,
        "Time(s)": 72
    },
    {
        "Altitude(m)": 705825.8305392365,
        "Argument of Periapsis(deg)": 0.00437620445591461,
        "Eccentricity": 0.0,
        "Inclination(deg)": 45.0,
        "Latitude(deg)": 38.347945734331645,
        "Longitude(deg)": 37.828535268571756,
        "Mean Anomaly(deg)": 118.97668323824264,
        "RAAN(deg)": 9.995868990913426,
        "Satellite Name": "Constellation 1 51",
        "Satellite Number": 51,
        "Semi-Major Axis(m)": 7083131.272910544,
        "Time(s)": 73
    },
    {
        "Altitude(m)": 705820.3189637775,
        "Argument of Periapsis(deg)": 0.004436152462160016,
        "Eccentricity": 0.0,
        "Inclination(deg)": 45.0,
        "Latitude(deg)": 38.321348714367126,
        "Longitude(deg)": 37.89391586443993,
        "Mean Anomaly(deg)": 119.03738437849253,
        "RAAN(deg)": 9.995812401747857,
        "Satellite Name": "Constellation 1 51",
        "Satellite Number": 51,
        "Semi-Major Axis(m)": 7083131.272910544,
        "Time(s)": 74
    },
    {
        "Altitude(m)": 705814.801679068,
        "Argument of Periapsis(deg)": 0.0044961004684054215,
        "Eccentricity": 0.0,
        "Inclination(deg)": 45.0,
        "Latitude(deg)": 38.2947104465097,
        "Longitude(deg)": 37.95924586499461,
        "Mean Anomaly(deg)": 119.09808551874245,
        "RAAN(deg)": 9.995755812582289,
        "Satellite Name": "Constellation 1 51",
        "Satellite Number": 51,
        "Semi-Major Axis(m)": 7083131.272910544,
        "Time(s)": 75
    }
]